{"type":"FeatureCollection", "features": [
{"type":"Feature","geometry":{"type":"Polygon","coordinates":[[[54.561411599865494,29.62649729951079],[54.542521899665985,29.628445199586338],[54.49613259953992,29.639835400183642],[54.463073100243435,29.639005700053076],[54.399460700151224,29.61733469983659],[54.36751449949463,29.610390699771017],[54.2427863998725,29.596223300065276],[54.19417380028074,29.662895700076547],[54.16722750014907,29.71539399953349],[54.103058499750034,29.79289649967376],[54.09222529965791,29.822066100170446],[54.08916860025073,29.85373479972128],[54.09222529965791,29.874282499937465],[54.10361519988163,29.909010499734848],[54.0980585002996,29.93845329987994],[54.047222599443444,29.990954100351473],[53.99555329954518,30.020119199741316],[53.93999760010922,30.061517800306262],[53.905551400177046,30.10678800026608],[53.864438599661696,30.202628800179014],[53.88610490002117,30.238465899681557],[53.897771500054716,30.278742999789642],[53.907494599496204,30.292349399705074],[53.925551100303096,30.33401750010762],[53.92610779953537,30.34901409992085],[53.9158278003128,30.38929410034251],[53.90555129945295,30.41373869968129],[53.89860469944739,30.445682500047383],[53.90110469962224,30.464018799727853],[53.92805089992913,30.52540919987473],[53.930827500089094,30.54013670004872],[53.925550999579,30.56985389953786],[53.91082789978782,30.59180130008997],[53.87943840016209,30.630137999569058],[53.84082559982164,30.655416399946944],[53.78387639997595,30.67513580027702],[53.73498699985021,30.689025299577963],[53.663871399445554,30.704864100098177],[53.611648799752345,30.711524699505333],[53.52914330002335,30.71791449955458],[53.471087499688394,30.731524500355476],[53.44441790026593,30.751524499955735],[53.39552859996496,30.812085199972046],[53.36358240020763,30.833196300269094],[53.28580020011918,30.870138699841164],[53.243020699545696,30.893479699728402],[53.21801759963256,30.901810699903933],[53.123015699914674,30.946255199917573],[53.0524566998169,30.987360799561316],[53.01940050013303,31.00153209962673],[52.969397900292904,31.01459339976566],[52.94884150003526,31.03597719968809],[52.941894900029695,31.059310999602985],[52.927451699836126,31.084865499942907],[52.911895299928176,31.121261699867603],[52.89939210016536,31.13626439978225],[52.87661579987929,31.154038400152103],[52.855225999680215,31.160980199576613],[52.8393895994505,31.171812600171393],[52.83355639970813,31.195698400360925],[52.85050279986439,31.21431239989738],[52.87800229996623,31.22681509963718],[52.92883829974778,31.234596800202212],[52.95550790006956,31.250710400264836],[52.97161780032127,31.277088499734532],[52.978287599792964,31.32265040019587],[52.968840999612496,31.361821300013048],[52.9507845995297,31.389879500338736],[52.93467149949015,31.404874600082792],[52.906895199753706,31.422650499820747],[52.86466899987448,31.437095100258716],[52.848559300171644,31.44764880005215],[52.80049999947545,31.494874299709238],[52.76216380001944,31.495704900061128],[52.69077149980495,31.502936399894963],[52.55965660027192,31.512379699563553],[52.49659749997471,31.523493300175687],[52.4329850998825,31.542660100383387],[52.39992549986198,31.546822099860094],[52.37297919973031,31.55460450009764],[52.34520299981864,31.57182130031282],[52.24742089995465,31.661545499825024],[52.20075139985727,31.669327999887344],[52.14630209946239,31.66154540000025],[52.130469099569325,31.65655259962284],[52.072689800294086,31.61710740028633],[52.04630039994356,31.595709999916608],[52.010464099938304,31.550433100007638],[51.98824120017133,31.502376199601997],[51.93879529956348,31.415987299574283],[51.93629540011267,31.40404339988305],[51.944351900220056,31.35487829999363],[51.956295200063494,31.30098359981332],[51.95462859983007,31.288209699617994],[51.9685183995046,31.21292179980128],[51.967961800097044,31.194316699955777],[51.956852000019865,31.150977699661155],[51.94101890030208,31.112920200107226],[51.89851630008724,31.027365299868734],[51.89490299947391,30.984029399537235],[51.872960000203875,30.944584599499706],[51.84990380032019,30.91958220015846],[51.83712409949766,30.898479299879853],[51.83240070003234,30.87597770021074],[51.84268070015423,30.842356499652794],[51.858513799872014,30.802634700331225],[51.84657059985335,30.7690328999484],[51.832680900003595,30.74041350018291],[51.8129577998626,30.715142899625164],[51.78517819961428,30.700693700054273],[51.83406759973997,30.6659745999479],[51.854904000319436,30.643186899855607],[51.86934719961363,30.61596840012163],[51.887126899886596,30.60096949984262],[51.877960499677386,30.575412100088386],[51.85573750008564,30.554024299981506],[51.834347899536,30.521248099720083],[51.833514499594514,30.490133199987213],[51.84323440014748,30.46957669990485],[51.82573459947224,30.43596299969272],[51.78156530009858,30.399020500295876],[51.77073219983123,30.38207450033798],[51.754065700171964,30.372076499730724],[51.72767610017195,30.37540610021142],[51.65947869998206,30.415686699581556],[51.63961740012297,30.421795699811753],[51.62739419978254,30.440402600099958],[51.6040577999276,30.441241799769273],[51.583781399991665,30.42346509963471],[51.5212755994894,30.435683100095048],[51.46543970008213,30.456798599875526],[51.45738670013617,30.465127500134088],[51.43183040025281,30.468186699656542],[51.399327399639844,30.463737900084084],[51.37432789971285,30.475965199534357],[51.36238119953276,30.49457259984564],[51.35710469992199,30.51457890009624],[51.36377109995635,30.541245399555578],[51.34960129996006,30.562633000012966],[51.29682200013525,30.59402909976319],[51.25181939974556,30.616518299579923],[51.227929700095615,30.64235609985417],[51.20792990014485,30.653745299506],[51.17709370031406,30.649305100150286],[51.161817299828556,30.628746699800388],[51.15709400018801,30.613467899923705],[51.13653750010559,30.59846889981992],[51.14376099957053,30.587639600087527],[51.14292769945382,30.564022500238252],[51.17904049961942,30.53068690008041],[51.18709709955158,30.50485079952483],[51.201263500110485,30.477634399707824],[51.25543299983315,30.415686400107347],[51.29487899956621,30.38457349956741],[51.292655799925285,30.370686500381737],[51.26820949996852,30.36373859995649],[51.24348639947783,30.347072600320303],[51.24070980021713,30.317621299783184],[51.265432999633276,30.30179509966416],[51.26904280008523,30.27957179969883],[51.208207099977756,30.23679530016301],[51.196817299578754,30.23540579993778],[51.18209419978757,30.20790539961456],[51.169317799476914,30.212064700225767],[51.13820499966107,30.206236200340413],[51.1309816000209,30.199289100311773],[51.10403539971401,30.197069499757674],[51.0662557996655,30.20039870004001],[51.03097650016542,30.17734689963976],[51.02347649964082,30.184014299720218],[50.95597419984949,30.15595539972196],[50.9373610996351,30.14012179998116],[50.92486140003365,30.115122300054168],[50.919585000247594,30.066234200348106],[50.89736199975653,30.024844399649396],[50.888195399897825,30.014848999881508],[50.86680580024756,30.005674600202667],[50.8604157996495,29.973731499509142],[50.836526399473826,29.963177100043197],[50.81624650027584,29.967064999650063],[50.783743800036405,29.98401509961718],[50.76124409973545,29.99206179981229],[50.73429769977906,29.990952200083996],[50.68679500028907,29.995958799658922],[50.66707209979762,29.97678929968646],[50.64596239974503,29.978728800094075],[50.61262629956411,29.9573404001394],[50.603183099720354,29.943728199596762],[50.64234900020625,29.93734170005945],[50.66040569976326,29.91484459969854],[50.71374150007023,29.87317099994175],[50.69540869965181,29.86150809971906],[50.675408799876266,29.85623129973476],[50.66762899957871,29.8415016996438],[50.64457269987025,29.828729599891176],[50.64762950000147,29.817057999627025],[50.665685599710685,29.805675199550876],[50.70374179974431,29.791505500278674],[50.74568789947705,29.783451100088257],[50.80180049959341,29.780114000161007],[50.83735990013935,29.773448699997573],[50.87291600017335,29.77455810007632],[50.927361900231574,29.78011409998578],[50.999867499985214,29.782892200214917],[51.05125669973694,29.770950600090146],[51.090149600223924,29.75094570008406],[51.17265179944104,29.714283200109662],[51.234044099855396,29.711225899955366],[51.26237699989866,29.70733870002107],[51.29709989964073,29.68650519975523],[51.2965466996705,29.658448200024452],[51.27404359993227,29.625945800158604],[51.270710299640655,29.605663899969045],[51.297380099611985,29.530662499874495],[51.32099330000085,29.49761379963718],[51.364605999966955,29.463438899985306],[51.375438999510266,29.471500099949708],[51.389882199703834,29.461500199974296],[51.41238509979257,29.462609299679514],[51.422661699577816,29.473438799960718],[51.44210809990892,29.47399790038287],[51.45738789983176,29.4620502999814],[51.485997399860196,29.461220799500325],[51.49044399969091,29.44872329964062],[51.50850039977371,29.452889099652282],[51.521000200099195,29.43900320033748],[51.55155639960822,29.425387999656493],[51.5518364997547,29.41427049958395],[51.59266920012357,29.38260470034669],[51.632672099637716,29.2923281003616],[51.677674799852184,29.22982520017291],[51.726287399444004,29.17232009969291],[51.75851029991048,29.13955289984648],[51.79545650001751,29.11509770019876],[51.81545959958089,29.085658500039813],[51.81517939960963,29.06816299992255],[51.79406999993063,29.04454780034075],[51.86740549946427,28.979825199773188],[51.88796199954669,28.947316900354735],[51.90657499993637,28.895929500146337],[51.93213139964445,28.85204249976158],[51.96046439951249,28.821205700083055],[51.974354100261564,28.779538800275475],[51.993520500270904,28.688985100282196],[52.01352369965906,28.630927499504537],[52.03547010016507,28.54119989965568],[52.037969999615825,28.51731010018102],[52.05582319968096,28.423068599736155],[52.09713930003875,28.324811999574194],[52.11269589959613,28.294534599791973],[52.123529099688255,28.258701999597633],[52.121305699498464,28.22035869999405],[52.12547239973151,28.199530899631384],[52.15825179978077,28.145640599833882],[52.17075169993109,28.13008200018419],[52.19908800031101,28.11147149990984],[52.21742110020364,28.095355399731943],[52.23325400027193,28.073414600203705],[52.26520029985403,28.04424520025583],[52.294089900028894,28.03035419998639],[52.33937259966581,28.022305999722164],[52.363262199490975,28.015077099828318],[52.38798520015689,27.993138699691315],[52.40159489968494,27.948408600176833],[52.42715119956824,27.912295100338667],[52.449930900190964,27.87174619992726],[52.45798750012307,27.847021899740923],[52.48687699957395,27.809518500378545],[52.50660009971489,27.77563490013057],[52.509933400006446,27.743966699703492],[52.52771320010413,27.704794999489707],[52.542712899880485,27.663124099497622],[52.56326930013813,27.624514800217923],[52.602715200046475,27.580626500312803],[52.62382840026049,27.563406699959273],[52.64771800008572,27.55756780031379],[52.75466629961011,27.50285269989223],[52.78883579973245,27.467850600225063],[52.828282000014326,27.442016300112186],[52.880504300233326,27.401737699934927],[52.91773059958757,27.349508500117224],[52.943843300128265,27.329785399976288],[52.97411960003956,27.31312060003569],[52.99967919953548,27.304792900372092],[53.01999680011227,27.289809199535],[53.04967839993827,27.275062099536342],[53.08190450019259,27.27034089981271],[53.130517099784356,27.272013600147602],[53.174686499882114,27.253398900039258],[53.229688899523126,27.239784499754933],[53.26996830009705,27.225621799906207],[53.3266373997962,27.198951800285386],[53.35358019976644,27.191174099904856],[53.381639900161304,27.137559499871088],[53.41052939961213,27.113950000192403],[53.484421600176745,27.100617200123736],[53.50025460006981,27.103395199628835],[53.5180342994434,27.12588939967611],[53.53025749978383,27.150623300125233],[53.54359060022608,27.157285699975148],[53.57970339949236,27.125341000286994],[53.63220579985784,27.098396599523483],[53.69081829942502,27.079787000369834],[53.75776719959663,27.052844599698574],[53.79609989979059,27.045895600301776],[53.82443609944647,27.05894859969817],[53.85776880019006,27.089235599743176],[53.93332760008872,27.123677799490906],[53.99277680010931,27.18978940026068],[54.023056299808445,27.21339279983789],[54.034999400002334,27.23506370022966],[54.015832999992995,27.27423500024514],[53.99638669948666,27.273119900263225],[53.980830199753996,27.290619899688693],[53.96638720010924,27.32034249960674],[53.96610719978747,27.340622899727066],[53.973330399778206,27.35423060006218],[54.00749980007578,27.363952999831156],[54.04833249954527,27.380349200155536],[54.10944819997451,27.408123999822806],[54.157784199581215,27.421454100126653],[54.23528619969841,27.43645759953864],[54.279175499649625,27.44701790035589],[54.35223430027281,27.45839670024759],[54.38668050020499,27.458684600214156],[54.42918320024455,27.453125500341628],[54.456686099783724,27.453404399893202],[54.4975186994285,27.4614551002727],[54.628913399633745,27.46785089969933],[54.65696959986718,27.46673539951911],[54.71947519982069,27.454231900282025],[54.78086429954783,27.447566399569723],[54.887815899584155,27.44173760021016],[54.923371999618155,27.43785169979617],[55.0539332000572,27.429792199550434],[55.12949199995586,27.430628700354305],[55.14088190017958,27.435341999533705],[55.19005110007828,27.466456400142818],[55.25672009975284,27.49562909970325],[55.276996399864004,27.51146180012205],[55.31283260004449,27.55451799960605],[55.33144570025894,27.571737700134804],[55.36366840017661,27.588129900274737],[55.410337799549836,27.6195122997529],[55.44450379951081,27.651462800068202],[55.45756029996795,27.68840890035051],[55.471450099642425,27.71868890007272],[55.48756340023078,27.735912500061886],[55.516729499666724,27.745631499494152],[55.56728869981367,27.781466499979047],[55.578678500212675,27.796747899795776],[55.575621999555665,27.82063339961178],[55.51422960021591,27.902304000229492],[55.50089649977372,27.92285349998906],[55.45922709985081,27.96174899951677],[55.38672500025859,27.99869299988211],[55.4006148997579,28.06758089953894],[55.395058300000585,28.146199099508863],[55.403114899932746,28.213974599847973],[55.40005829945102,28.244807299517333],[55.408671599514776,28.310087700087365],[55.40478169981566,28.352028799589505],[55.407005000180675,28.362305000075764],[55.407838300297385,28.418416799795523],[55.41561489990778,28.46731719952919],[55.42672810032161,28.502591399873268],[55.448117799796705,28.52258919973184],[55.45311759959759,28.541200200029266],[55.44756109966505,28.560090799550835],[55.42617150001479,28.586207000252898],[55.378115599655246,28.630369300203085],[55.35088920027641,28.660370699847988],[55.28588699958544,28.70425739985916],[55.25199749978486,28.723989600239918],[55.24366439969236,28.78231460003883],[55.24810769991046,28.842598999544236],[55.26199760030909,28.899823200380467],[55.27255399986723,28.961205600158394],[55.28061059979939,28.995102499580753],[55.27505409986685,29.045656999870687],[55.26227769955625,29.094546599645923],[55.19977189995325,29.20343920015904],[55.164215799919305,29.253715999693668],[55.1256031003029,29.291219999803218],[55.08143380002991,29.327886900160365],[55.01309810029716,29.367881999854433],[54.9839319999619,29.39483180014753],[54.95392899952378,29.442890500096553],[54.913926399483785,29.484828600359663],[54.879203599566495,29.5315024001157],[54.83531429961528,29.579837399676308],[54.816144500168605,29.593725100333188],[54.77308849943478,29.608722299994213],[54.73808560027027,29.61288869985367],[54.694749600113994,29.61344790010054],[54.63863709982235,29.610110999822837],[54.58474799972049,29.616784599829487],[54.561411599865494,29.62649729951079]]]},"properties":{"shapeName":"Fars","shapeISO":"IR-14","shapeID":"17685810B30738859401369","shapeGroup":"IRN","shapeType":"ADM1"}}
]}